{"type": "FeatureCollection", "features": [ {"type": "Feature", "properties": {"norad_id": 34077, "name": "IRIDIUM 33 DEB", "group": "iridium-33-debris", "lat": -71.27733421268799, "lon": 42.68332686133506, "alt_km": 689.5607639856125, "timestamp": "2025-12-08T08:59:01.151381+00:00", "meta": {"OBJECT_NAME": "IRIDIUM 33 DEB", "OBJECT_ID": "1997-051CL", "EPOCH": "2025-12-07T17:30:10.612800", "MEAN_MOTION": 14.64727132, "ECCENTRICITY": 0.0010688, "INCLINATION": 86.3861, "RA_OF_ASC_NODE": 53.7144, "ARG_OF_PERICENTER": 55.2764, "MEAN_ANOMALY": 74.1859, "EPHEMERIS_TYPE": 0, "CLASSIFICATION_TYPE": "U", "NORAD_CAT_ID": 34077, "ELEMENT_SET_NO": 999, "REV_AT_EPOCH": 88259, "BSTAR": 0.0027822703, "MEAN_MOTION_DOT": 0.00014865, "MEAN_MOTION_DDOT": 0}, "tle": {"line1": "1 34077U 97051CL  25341.72928950  .00014865  00000+0  27823-2 0  9997", "line2": "2 34077  86.3861  53.7144 0010688  55.2764  74.1859 14.64727132882594"}}, "geometry": {"type": "Point", "coordinates": [42.68332686133506, -71.27733421268799]}}, {"type": "Feature", "properties": {"norad_id": 34079, "name": "IRIDIUM 33 DEB", "group": "iridium-33-debris", "lat": -12.470284535949185, "lon": 9.844414904014686, "alt_km": 619.7425998904282, "timestamp": "2025-12-08T08:59:01.151391+00:00", "meta": {"OBJECT_NAME": "IRIDIUM 33 DEB", "OBJECT_ID": "1997-051CN", "EPOCH": "2025-12-07T20:52:32.558592", "MEAN_MOTION": 14.83340445, "ECCENTRICITY": 0.00061753, "INCLINATION": 86.3774, "RA_OF_ASC_NODE": 10.8765, "ARG_OF_PERICENTER": 23.6265, "MEAN_ANOMALY": 151.7698, "EPHEMERIS_TYPE": 0, "CLASSIFICATION_TYPE": "U", "NORAD_CAT_ID": 34079, "ELEMENT_SET_NO": 999, "REV_AT_EPOCH": 88905, "BSTAR": 0.0027063735, "MEAN_MOTION_DOT": 0.00022246, "MEAN_MOTION_DDOT": 0}, "tle": {"line1": "1 34079U 97051CN  25341.86982128  .00022246  00000+0  27064-2 0  9990", "line2": "2 34079  86.3774  10.8765 0006175  23.6265 151.7698 14.83340445889053"}}, "geometry": {"type": "Point", "coordinates": [9.844414904014686, -12.470284535949185]}}, {"type": "Feature", "properties": {"norad_id": 34088, "name": "IRIDIUM 33 DEB", "group": "iridium-33-debris", "lat": -43.049009634060546, "lon": 29.343711530695828, "alt_km": 603.4066243548641, "timestamp": "2025-12-08T08:59:01.151402+00:00", "meta": {"OBJECT_NAME": "IRIDIUM 33 DEB", "OBJECT_ID": "1997-051CX", "EPOCH": "2025-12-07T15:59:55.064256", "MEAN_MOTION": 14.91020771, "ECCENTRICITY": 0.0005328, "INCLINATION": 86.3847, "RA_OF_ASC_NODE": 33.0545, "ARG_OF_PERICENTER": 195.781, "MEAN_ANOMALY": 284.8122, "EPHEMERIS_TYPE": 0, "CLASSIFICATION_TYPE": "U", "NORAD_CAT_ID": 34088, "ELEMENT_SET_NO": 999, "REV_AT_EPOCH": 88666, "BSTAR": 0.0039560739, "MEAN_MOTION_DOT": 0.00039325, "MEAN_MOTION_DDOT": 0}, "tle": {"line1": "1 34088U 97051CX  25341.66660954  .00039325  00000+0  39561-2 0  9999", "line2": "2 34088  86.3847  33.0545 0005328 195.7810 284.8122 14.91020771886663"}}, "geometry": {"type": "Point", "coordinates": [29.343711530695828, -43.049009634060546]}}, {"type": "Feature", "properties": {"norad_id": 34091, "name": "IRIDIUM 33 DEB", "group": "iridium-33-debris", "lat": -65.8898526533177, "lon": 60.61420085831684, "alt_km": 610.0810434362029, "timestamp": "2025-12-08T08:59:01.151412+00:00", "meta": {"OBJECT_NAME": "IRIDIUM 33 DEB", "OBJECT_ID": "1997-051DA", "EPOCH": "2025-12-07T17:04:02.135712", "MEAN_MOTION": 14.81237969, "ECCENTRICITY": 0.00331325, "INCLINATION": 86.3419, "RA_OF_ASC_NODE": 69.1363, "ARG_OF_PERICENTER": 311.2818, "MEAN_ANOMALY": 48.5552, "EPHEMERIS_TYPE": 0, "CLASSIFICATION_TYPE": "U", "NORAD_CAT_ID": 34091, "ELEMENT_SET_NO": 999, "REV_AT_EPOCH": 87792, "BSTAR": 0.007996222, "MEAN_MOTION_DOT": 0.00063385, "MEAN_MOTION_DDOT": 0}, "tle": {"line1": "1 34091U 97051DA  25341.71113583  .00063385  00000+0  79962-2 0  9992", "line2": "2 34091  86.3419  69.1363 0033132 311.2818  48.5552 14.81237969877926"}}, "geometry": {"type": "Point", "coordinates": [60.61420085831684, -65.8898526533177]}}, {"type": "Feature", "properties": {"norad_id": 34097, "name": "IRIDIUM 33 DEB", "group": "iridium-33-debris", "lat": -16.806998111784967, "lon": -175.5152860588637, "alt_km": 840.4394693817403, "timestamp": "2025-12-08T08:59:01.151423+00:00", "meta": {"OBJECT_NAME": "IRIDIUM 33 DEB", "OBJECT_ID": "1997-051DG", "EPOCH": "2025-12-07T18:40:48.134496", "MEAN_MOTION": 14.3471964, "ECCENTRICITY": 0.00831758, "INCLINATION": 86.1998, "RA_OF_ASC_NODE": 3.5973, "ARG_OF_PERICENTER": 18.3054, "MEAN_ANOMALY": 342.1104, "EPHEMERIS_TYPE": 0, "CLASSIFICATION_TYPE": "U", "NORAD_CAT_ID": 34097, "ELEMENT_SET_NO": 999, "REV_AT_EPOCH": 87048, "BSTAR": 0.0022730576, "MEAN_MOTION_DOT": 6.712e-05, "MEAN_MOTION_DDOT": 0}, "tle": {"line1": "1 34097U 97051DG  25341.77833489  .00006712  00000+0  22731-2 0  9991", "line2": "2 34097  86.1998   3.5973 0083175  18.3054 342.1104 14.34719640870489"}}, "geometry": {"type": "Point", "coordinates": [-175.5152860588637, -16.806998111784967]}}, {"type": "Feature", "properties": {"norad_id": 34145, "name": "IRIDIUM 33 DEB", "group": "iridium-33-debris", "lat": -12.567629665683034, "lon": -26.37609419601043, "alt_km": 775.3681276732286, "timestamp": "2025-12-08T08:59:01.151433+00:00", "meta": {"OBJECT_NAME": "IRIDIUM 33 DEB", "OBJECT_ID": "1997-051DY", "EPOCH": "2025-12-07T23:03:04.751424", "MEAN_MOTION": 14.42235871, "ECCENTRICITY": 0.0055559, "INCLINATION": 86.2113, "RA_OF_ASC_NODE": 334.6546, "ARG_OF_PERICENTER": 109.0134, "MEAN_ANOMALY": 251.7097, "EPHEMERIS_TYPE": 0, "CLASSIFICATION_TYPE": "U", "NORAD_CAT_ID": 34145, "ELEMENT_SET_NO": 999, "REV_AT_EPOCH": 87569, "BSTAR": 0.0013920574, "MEAN_MOTION_DOT": 4.693e-05, "MEAN_MOTION_DDOT": 0}, "tle": {"line1": "1 34145U 97051DY  25341.96047166  .00004693  00000+0  13921-2 0  9992", "line2": "2 34145  86.2113 334.6546 0055559 109.0134 251.7097 14.42235871875691"}}, "geometry": {"type": "Point", "coordinates": [-26.37609419601043, -12.567629665683034]}}, {"type": "Feature", "properties": {"norad_id": 34146, "name": "IRIDIUM 33 DEB", "group": "iridium-33-debris", "lat": -59.52099412012823, "lon": 178.06956062969718, "alt_km": 718.2764789507846, "timestamp": "2025-12-08T08:59:01.151443+00:00", "meta": {"OBJECT_NAME": "IRIDIUM 33 DEB", "OBJECT_ID": "1997-051DZ", "EPOCH": "2025-12-07T23:41:17.071296", "MEAN_MOTION": 14.48997884, "ECCENTRICITY": 0.00251435, "INCLINATION": 86.2834, "RA_OF_ASC_NODE": 351.8998, "ARG_OF_PERICENTER": 238.5733, "MEAN_ANOMALY": 141.9749, "EPHEMERIS_TYPE": 0, "CLASSIFICATION_TYPE": "U", "NORAD_CAT_ID": 34146, "ELEMENT_SET_NO": 999, "REV_AT_EPOCH": 88038, "BSTAR": 0.0012899771, "MEAN_MOTION_DOT": 4.929e-05, "MEAN_MOTION_DDOT": 0}, "tle": {"line1": "1 34146U 97051DZ  25341.98700314  .00004929  00000+0  12900-2 0  9994", "line2": "2 34146  86.2834 351.8998 0025143 238.5733 141.9749 14.48997884880384"}}, "geometry": {"type": "Point", "coordinates": [178.06956062969718, -59.52099412012823]}}, {"type": "Feature", "properties": {"norad_id": 34159, "name": "IRIDIUM 33 DEB", "group": "iridium-33-debris", "lat": 59.84222501432959, "lon": -136.2018249029888, "alt_km": 776.4341082776346, "timestamp": "2025-12-08T08:59:01.151454+00:00", "meta": {"OBJECT_NAME": "IRIDIUM 33 DEB", "OBJECT_ID": "1997-051EN", "EPOCH": "2025-12-07T22:24:36.579744", "MEAN_MOTION": 14.38475158, "ECCENTRICITY": 0.0026103, "INCLINATION": 86.3515, "RA_OF_ASC_NODE": 50.2906, "ARG_OF_PERICENTER": 304.7744, "MEAN_ANOMALY": 55.0997, "EPHEMERIS_TYPE": 0, "CLASSIFICATION_TYPE": "U", "NORAD_CAT_ID": 34159, "ELEMENT_SET_NO": 999, "REV_AT_EPOCH": 87890, "BSTAR": 0.00059598171, "MEAN_MOTION_DOT": 1.845e-05, "MEAN_MOTION_DDOT": 0}, "tle": {"line1": "1 34159U 97051EN  25341.93375671  .00001845  00000+0  59598-3 0  9996", "line2": "2 34159  86.3515  50.2906 0026103 304.7744  55.0997 14.38475158878908"}}, "geometry": {"type": "Point", "coordinates": [-136.2018249029888, 59.84222501432959]}}, {"type": "Feature", "properties": {"norad_id": 34350, "name": "IRIDIUM 33 DEB", "group": "iridium-33-debris", "lat": 40.05884291451818, "lon": 7.797287923133952, "alt_km": 742.7583752098571, "timestamp": "2025-12-08T08:59:01.151464+00:00", "meta": {"OBJECT_NAME": "IRIDIUM 33 DEB", "OBJECT_ID": "1997-051ES", "EPOCH": "2025-12-07T07:57:58.605120", "MEAN_MOTION": 14.45368778, "ECCENTRICITY": 0.00222637, "INCLINATION": 86.328, "RA_OF_ASC_NODE": 5.154, "ARG_OF_PERICENTER": 152.1514, "MEAN_ANOMALY": 227.8879, "EPHEMERIS_TYPE": 0, "CLASSIFICATION_TYPE": "U", "NORAD_CAT_ID": 34350, "ELEMENT_SET_NO": 999, "REV_AT_EPOCH": 88215, "BSTAR": 0.00056959331, "MEAN_MOTION_DOT": 2.027e-05, "MEAN_MOTION_DDOT": 0}, "tle": {"line1": "1 34350U 97051ES  25341.33192830  .00002027  00000+0  56959-3 0  9998", "line2": "2 34350  86.3280   5.1540 0022263 152.1514 227.8879 14.45368778882153"}}, "geometry": {"type": "Point", "coordinates": [7.797287923133952, 40.05884291451818]}}, {"type": "Feature", "properties": {"norad_id": 34366, "name": "IRIDIUM 33 DEB", "group": "iridium-33-debris", "lat": -52.90917643037711, "lon": -123.97103900177362, "alt_km": 716.7774863765362, "timestamp": "2025-12-08T08:59:01.151474+00:00", "meta": {"OBJECT_NAME": "IRIDIUM 33 DEB", "OBJECT_ID": "1997-051FJ", "EPOCH": "2025-12-07T22:49:04.445760", "MEAN_MOTION": 14.53992802, "ECCENTRICITY": 0.00220861, "INCLINATION": 86.3696, "RA_OF_ASC_NODE": 51.396, "ARG_OF_PERICENTER": 155.0204, "MEAN_ANOMALY": 21.9973, "EPHEMERIS_TYPE": 0, "CLASSIFICATION_TYPE": "U", "NORAD_CAT_ID": 34366, "ELEMENT_SET_NO": 999, "REV_AT_EPOCH": 88112, "BSTAR": 0.0015640864, "MEAN_MOTION_DOT": 6.633e-05, "MEAN_MOTION_DDOT": 0}, "tle": {"line1": "1 34366U 97051FJ  25341.95074590  .00006633  00000+0  15641-2 0  9994", "line2": "2 34366  86.3696  51.3960 0022086 155.0204  21.9973 14.53992802881125"}}, "geometry": {"type": "Point", "coordinates": [-123.97103900177362, -52.90917643037711]}}]}